CCSDS_OMM_VERS = 2.0
CREATION_DATE  = 
ORIGINATOR     = 

OBJECT_NAME    = STARLINK-36602
OBJECT_ID      = 2026-033AE
CENTER_NAME    = EARTH
REF_FRAME      = TEME
TIME_SYSTEM    = UTC
MEAN_ELEMENT_THEORY = SGP/SGP4

EPOCH          = 2026-03-12T16:00:01.999584
MEAN_MOTION    = 15.71073792
ECCENTRICITY   = .0001448
INCLINATION    = 42.9990
RA_OF_ASC_NODE = 253.1322
ARG_OF_PERICENTER = 273.3658
MEAN_ANOMALY   = 175.2115

EPHEMERIS_TYPE = 0
CLASSIFICATION_TYPE = U
NORAD_CAT_ID   = 67849
ELEMENT_SET_NO = 999
REV_AT_EPOCH   = 514
BSTAR          = -.17175E-1
MEAN_MOTION_DOT = -.1967407E-1
MEAN_MOTION_DDOT = 0

CCSDS_OMM_VERS = 2.0
CREATION_DATE  = 
ORIGINATOR     = 

OBJECT_NAME    = STARLINK-36840
OBJECT_ID      = 2026-034A
CENTER_NAME    = EARTH
REF_FRAME      = TEME
TIME_SYSTEM    = UTC
MEAN_ELEMENT_THEORY = SGP/SGP4

EPOCH          = 2026-03-12T16:52:14.213856
MEAN_MOTION    = 15.80939001
ECCENTRICITY   = .0001306
INCLINATION    = 53.1580
RA_OF_ASC_NODE = 196.2571
ARG_OF_PERICENTER = 74.4724
MEAN_ANOMALY   = 285.6443

EPHEMERIS_TYPE = 0
CLASSIFICATION_TYPE = U
NORAD_CAT_ID   = 67850
ELEMENT_SET_NO = 999
REV_AT_EPOCH   = 441
BSTAR          = .86903E-3
MEAN_MOTION_DOT = .174868E-2
MEAN_MOTION_DDOT = 0

CCSDS_OMM_VERS = 2.0
CREATION_DATE  = 
ORIGINATOR     = 

OBJECT_NAME    = STARLINK-36348
OBJECT_ID      = 2026-034B
CENTER_NAME    = EARTH
REF_FRAME      = TEME
TIME_SYSTEM    = UTC
MEAN_ELEMENT_THEORY = SGP/SGP4

EPOCH          = 2026-03-12T16:51:09.533952
MEAN_MOTION    = 15.80948725
ECCENTRICITY   = .0001076
INCLINATION    = 53.1581
RA_OF_ASC_NODE = 196.2513
ARG_OF_PERICENTER = 61.5067
MEAN_ANOMALY   = 298.6064

EPHEMERIS_TYPE = 0
CLASSIFICATION_TYPE = U
NORAD_CAT_ID   = 67851
ELEMENT_SET_NO = 999
REV_AT_EPOCH   = 441
BSTAR          = .81039E-3
MEAN_MOTION_DOT = .162864E-2
MEAN_MOTION_DDOT = 0

CCSDS_OMM_VERS = 2.0
CREATION_DATE  = 
ORIGINATOR     = 

OBJECT_NAME    = STARLINK-36276
OBJECT_ID      = 2026-034C
CENTER_NAME    = EARTH
REF_FRAME      = TEME
TIME_SYSTEM    = UTC
MEAN_ELEMENT_THEORY = SGP/SGP4

EPOCH          = 2026-03-12T16:50:04.658784
MEAN_MOTION    = 15.80974717
ECCENTRICITY   = .0001482
INCLINATION    = 53.1582
RA_OF_ASC_NODE = 196.2465
ARG_OF_PERICENTER = 43.8075
MEAN_ANOMALY   = 316.3065

EPHEMERIS_TYPE = 0
CLASSIFICATION_TYPE = U
NORAD_CAT_ID   = 67852
ELEMENT_SET_NO = 999
REV_AT_EPOCH   = 441
BSTAR          = .113E-2
MEAN_MOTION_DOT = .229418E-2
MEAN_MOTION_DDOT = 0

CCSDS_OMM_VERS = 2.0
CREATION_DATE  = 
ORIGINATOR     = 

OBJECT_NAME    = STARLINK-36785
OBJECT_ID      = 2026-034D
CENTER_NAME    = EARTH
REF_FRAME      = TEME
TIME_SYSTEM    = UTC
MEAN_ELEMENT_THEORY = SGP/SGP4

EPOCH          = 2026-03-12T16:48:59.812128
MEAN_MOTION    = 15.80982523
ECCENTRICITY   = .000168
INCLINATION    = 53.1583
RA_OF_ASC_NODE = 196.2418
ARG_OF_PERICENTER = 48.1729
MEAN_ANOMALY   = 311.9437

EPHEMERIS_TYPE = 0
CLASSIFICATION_TYPE = U
NORAD_CAT_ID   = 67853
ELEMENT_SET_NO = 999
REV_AT_EPOCH   = 441
BSTAR          = .11888E-2
MEAN_MOTION_DOT = .241842E-2
MEAN_MOTION_DDOT = 0

CCSDS_OMM_VERS = 2.0
CREATION_DATE  = 
ORIGINATOR     = 

OBJECT_NAME    = STARLINK-36608
OBJECT_ID      = 2026-034E
CENTER_NAME    = EARTH
REF_FRAME      = TEME
TIME_SYSTEM    = UTC
MEAN_ELEMENT_THEORY = SGP/SGP4

EPOCH          = 2026-03-12T16:47:55.219488
MEAN_MOTION    = 15.80960134
ECCENTRICITY   = .0002015
INCLINATION    = 53.1583
RA_OF_ASC_NODE = 196.2364
ARG_OF_PERICENTER = 48.5323
MEAN_ANOMALY   = 311.5873

EPHEMERIS_TYPE = 0
CLASSIFICATION_TYPE = U
NORAD_CAT_ID   = 67854
ELEMENT_SET_NO = 999
REV_AT_EPOCH   = 440
BSTAR          = .10762E-2
MEAN_MOTION_DOT = .21803E-2
MEAN_MOTION_DDOT = 0

CCSDS_OMM_VERS = 2.0
CREATION_DATE  = 
ORIGINATOR     = 

OBJECT_NAME    = STARLINK-36838
OBJECT_ID      = 2026-034F
CENTER_NAME    = EARTH
REF_FRAME      = TEME
TIME_SYSTEM    = UTC
MEAN_ELEMENT_THEORY = SGP/SGP4

EPOCH          = 2026-03-12T15:15:47.794176
MEAN_MOTION    = 15.81001624
ECCENTRICITY   = .0000827
INCLINATION    = 53.1585
RA_OF_ASC_NODE = 196.5471
ARG_OF_PERICENTER = 83.0444
MEAN_ANOMALY   = 277.0673

EPHEMERIS_TYPE = 0
CLASSIFICATION_TYPE = U
NORAD_CAT_ID   = 67855
ELEMENT_SET_NO = 999
REV_AT_EPOCH   = 440
BSTAR          = .13207E-2
MEAN_MOTION_DOT = .269874E-2
MEAN_MOTION_DDOT = 0

CCSDS_OMM_VERS = 2.0
CREATION_DATE  = 
ORIGINATOR     = 

OBJECT_NAME    = STARLINK-36843
OBJECT_ID      = 2026-034G
CENTER_NAME    = EARTH
REF_FRAME      = TEME
TIME_SYSTEM    = UTC
MEAN_ELEMENT_THEORY = SGP/SGP4

EPOCH          = 2026-03-12T15:13:38.287488
MEAN_MOTION    = 15.81019319
ECCENTRICITY   = .0001172
INCLINATION    = 53.1582
RA_OF_ASC_NODE = 196.5378
ARG_OF_PERICENTER = 56.2361
MEAN_ANOMALY   = 303.8773

EPHEMERIS_TYPE = 0
CLASSIFICATION_TYPE = U
NORAD_CAT_ID   = 67856
ELEMENT_SET_NO = 999
REV_AT_EPOCH   = 440
BSTAR          = .16293E-2
MEAN_MOTION_DOT = .33596E-2
MEAN_MOTION_DDOT = 0

CCSDS_OMM_VERS = 2.0
CREATION_DATE  = 
ORIGINATOR     = 

OBJECT_NAME    = STARLINK-36828
OBJECT_ID      = 2026-034H
CENTER_NAME    = EARTH
REF_FRAME      = TEME
TIME_SYSTEM    = UTC
MEAN_ELEMENT_THEORY = SGP/SGP4

EPOCH          = 2026-03-12T15:14:43.089216
MEAN_MOTION    = 15.80977906
ECCENTRICITY   = .000091
INCLINATION    = 53.1580
RA_OF_ASC_NODE = 196.5433
ARG_OF_PERICENTER = 82.2825
MEAN_ANOMALY   = 277.8301

EPHEMERIS_TYPE = 0
CLASSIFICATION_TYPE = U
NORAD_CAT_ID   = 67857
ELEMENT_SET_NO = 999
REV_AT_EPOCH   = 440
BSTAR          = .10457E-2
MEAN_MOTION_DOT = .211855E-2
MEAN_MOTION_DDOT = 0

CCSDS_OMM_VERS = 2.0
CREATION_DATE  = 
ORIGINATOR     = 

OBJECT_NAME    = STARLINK-36837
OBJECT_ID      = 2026-034J
CENTER_NAME    = EARTH
REF_FRAME      = TEME
TIME_SYSTEM    = UTC
MEAN_ELEMENT_THEORY = SGP/SGP4

EPOCH          = 2026-03-12T15:12:33.468480
MEAN_MOTION    = 15.81024735
ECCENTRICITY   = .0001087
INCLINATION    = 53.1585
RA_OF_ASC_NODE = 196.5322
ARG_OF_PERICENTER = 62.4242
MEAN_ANOMALY   = 297.6891

EPHEMERIS_TYPE = 0
CLASSIFICATION_TYPE = U
NORAD_CAT_ID   = 67858
ELEMENT_SET_NO = 999
REV_AT_EPOCH   = 440
BSTAR          = .16664E-2
MEAN_MOTION_DOT = .344042E-2
MEAN_MOTION_DDOT = 0

CCSDS_OMM_VERS = 2.0
CREATION_DATE  = 
ORIGINATOR     = 

OBJECT_NAME    = STARLINK-36393
OBJECT_ID      = 2026-034K
CENTER_NAME    = EARTH
REF_FRAME      = TEME
TIME_SYSTEM    = UTC
MEAN_ELEMENT_THEORY = SGP/SGP4

EPOCH          = 2026-03-12T15:11:28.703040
MEAN_MOTION    = 15.81016970
ECCENTRICITY   = .0001127
INCLINATION    = 53.1582
RA_OF_ASC_NODE = 196.5270
ARG_OF_PERICENTER = 61.4951
MEAN_ANOMALY   = 298.6185

EPHEMERIS_TYPE = 0
CLASSIFICATION_TYPE = U
NORAD_CAT_ID   = 67859
ELEMENT_SET_NO = 999
REV_AT_EPOCH   = 440
BSTAR          = .16483E-2
MEAN_MOTION_DOT = .340006E-2
MEAN_MOTION_DDOT = 0

CCSDS_OMM_VERS = 2.0
CREATION_DATE  = 
ORIGINATOR     = 

OBJECT_NAME    = STARLINK-35873
OBJECT_ID      = 2026-034L
CENTER_NAME    = EARTH
REF_FRAME      = TEME
TIME_SYSTEM    = UTC
MEAN_ELEMENT_THEORY = SGP/SGP4

EPOCH          = 2026-03-12T15:10:23.909952
MEAN_MOTION    = 15.80999934
ECCENTRICITY   = .0001118
INCLINATION    = 53.1581
RA_OF_ASC_NODE = 196.5222
ARG_OF_PERICENTER = 61.7519
MEAN_ANOMALY   = 298.3616

EPHEMERIS_TYPE = 0
CLASSIFICATION_TYPE = U
NORAD_CAT_ID   = 67860
ELEMENT_SET_NO = 999
REV_AT_EPOCH   = 443
BSTAR          = .13976E-2
MEAN_MOTION_DOT = .286159E-2
MEAN_MOTION_DDOT = 0

