STARLINK-36602          
1 67849U 26033AE  26071.66668981 -.01967407  00000+0 -17175-1 0  9991
2 67849  42.9990 253.1322 0001448 273.3658 175.2115 15.71073792  5142
STARLINK-36840          
1 67850U 26034A   26071.70294229  .00174868  00000+0  86903-3 0  9994
2 67850  53.1580 196.2571 0001306  74.4724 285.6443 15.80939001  4416
STARLINK-36348          
1 67851U 26034B   26071.70219368  .00162864  00000+0  81039-3 0  9994
2 67851  53.1581 196.2513 0001076  61.5067 298.6064 15.80948725  4411
STARLINK-36276          
1 67852U 26034C   26071.70144281  .00229418  00000+0  11300-2 0  9998
2 67852  53.1582 196.2465 0001482  43.8075 316.3065 15.80974717  4411
STARLINK-36785          
1 67853U 26034D   26071.70069227  .00241842  00000+0  11888-2 0  9991
2 67853  53.1583 196.2418 0001680  48.1729 311.9437 15.80982523  4413
STARLINK-36608          
1 67854U 26034E   26071.69994467  .00218030  00000+0  10762-2 0  9996
2 67854  53.1583 196.2364 0002015  48.5323 311.5873 15.80960134  4404
STARLINK-36838          
1 67855U 26034F   26071.63596984  .00269874  00000+0  13207-2 0  9992
2 67855  53.1585 196.5471 0000827  83.0444 277.0673 15.81001624  4401
STARLINK-36843          
1 67856U 26034G   26071.63447092  .00335960  00000+0  16293-2 0  9996
2 67856  53.1582 196.5378 0001172  56.2361 303.8773 15.81019319  4408
STARLINK-36828          
1 67857U 26034H   26071.63522094  .00211855  00000+0  10457-2 0  9995
2 67857  53.1580 196.5433 0000910  82.2825 277.8301 15.80977906  4403
STARLINK-36837          
1 67858U 26034J   26071.63372070  .00344042  00000+0  16664-2 0  9994
2 67858  53.1585 196.5322 0001087  62.4242 297.6891 15.81024735  4403
STARLINK-36393          
1 67859U 26034K   26071.63297110  .00340006  00000+0  16483-2 0  9991
2 67859  53.1582 196.5270 0001127  61.4951 298.6185 15.81016970  4403
STARLINK-35873          
1 67860U 26034L   26071.63222118  .00286159  00000+0  13976-2 0  9991
2 67860  53.1581 196.5222 0001118  61.7519 298.3616 15.80999934  4432
